#aV2013  5  8  0  0  0.00000000     288 DD+AD WGS84 FIT  NGA
## 1739 259200.00000000   300.00000000 56420 0.0000000000000
+   30     1  2  3  4  5  6  7  8  9 10 11 12 13 14 15 16 17
+         18 19 20 21 22 23 24 25 26 28 29 31 32  0  0  0  0
+          0  0  0  0  0  0  0  0  0  0  0  0  0  0  0  0  0
+          0  0  0  0  0  0  0  0  0  0  0  0  0  0  0  0  0
+          0  0  0  0  0  0  0  0  0  0  0  0  0  0  0  0  0
++         2  2  2  2  2  2  2  2  2  2  2  2  2  2  2  2  2
++         2  2  2  2  2  2  2  2  2  2  2  2  2  2  2  0  0
++         0  0  0  0  0  0  0  0  0  0  0  0  0  0  0  0  0
++         0  0  0  0  0  0  0  0  0  0  0  0  0  0  0  0  0
++         0  0  0  0  0  0  0  0  0  0  0  0  0  0  0  0  0
%c cc cc ccc ccc cccc cccc cccc cccc ccccc ccccc ccccc ccccc
%c cc cc ccc ccc cccc cccc cccc cccc ccccc ccccc ccccc ccccc
%f  0.0000000  0.000000000  0.00000000000  0.000000000000000
%f  0.0000000  0.000000000  0.00000000000  0.000000000000000
%i    0    0    0    0      0      0      0      0         0
%i    0    0    0    0      0      0      0      0         0
/*      NGA, ST. LOUIS,MO.                                  
/*   EPHEMERIS COMPUTED FROM  1 DAYS OF DATA
/*   EPOCHA SMOOTHER  
/* CCCCCCCCCCCCCCCCCCCCCCCCCCCCCCCCCCCCCCCCCCCCCCCCCCCCCCCCC
*  2013  5  8 13 45  0.00000000                                                 
P  1 -13622.730581  10826.600730  20026.688711     23.937891                    
V  1  -2118.618851 -25429.474726  12378.910794      0.039596                    
P  2  13515.551782  15125.678786 -17193.337849    431.136403                    
V  2   -543.614511  22183.773430  18351.990559      0.018477                    
P  3 -25109.023188  -9012.735723   -101.169118    204.136385                    
V  3    718.320156  -3430.205264 -31013.754750      0.049386                    
P  4   8024.086078  23402.536470  -9560.575893    212.254705                    
V  4  -2830.298990  12007.242663  28112.641521      0.104437                    
P  5  19517.668538   2794.640061 -17887.508623   -394.024330                    
V  5 -18212.048381  13561.128256 -17640.893090     -0.010751                    
P  6 -22669.395257 -13542.859410  -4240.525624    240.991245                    
V  6   6233.294448   -585.677226 -30457.120348     -0.162238                    
P  7  -6451.169919  23492.993943 -10168.939397    211.473932                    
V  7  -2571.749463 -13005.750161 -28586.864993      0.042724                    
P  8  -1638.451796  26178.055301    391.526892      6.033626                    
V  8  -2148.711536    218.501303 -32960.546709      0.001456                    
P  9   9350.691156  20968.885278  12720.512429    239.486791                    
V  9  -1196.671525  17122.655516 -26286.319423      0.026322                    
P 10   4660.229866  15323.658003 -21433.473052    -79.128843                    
V 10 -23133.904264  13254.493674   4921.797212     -0.013178                    
P 11 -16288.787399   3344.441449  20288.836386   -379.863866                    
V 11  -8579.517490 -25690.293336  -2323.502053     -0.036317                    
P 12  23842.791467 -10459.597970   4599.540350    132.652420                    
V 12  -3973.734381   4894.517416  31697.374059      0.020761                    
P 13 -10110.695371  11020.568991 -22100.213335    121.210064                    
V 13 -22990.115358 -15351.789512   2757.707378     -0.036304                    
P 14  -9515.535977 -18928.579227  16308.418880    220.970547                    
V 14  17980.751068   9431.559624  21555.690212     -0.001057                    
P 15  23400.993587   1148.119280  12721.668676   -118.301966                    
V 15  13356.086833   9442.627091 -25104.625040     -0.015142                    
P 16 -18790.139327  -3581.112744 -18594.592719   -252.220127                    
V 16  19925.674402 -12276.453174 -17457.415895      0.002015                    
P 17   9915.714989  18778.406350  16314.997793     21.625560                    
V 17 -18295.160193  -8731.058427  21228.085235     -0.039661                    
P 18  10431.839743 -19597.902167  14718.800727    252.646825                    
V 18  16987.628136  -7246.332514 -22661.852412      0.019300                    
P 19 -23683.491063  -6723.896174  10415.446673   -371.252698                    
V 19  -9914.577653  -8987.891321 -27693.328065     -0.030611                    
P 20 -22134.685951  14546.691594   1204.345872     96.949956                    
V 20   -824.866266  -4186.127662  31019.785508      0.019737                    
P 21   3331.506161 -25280.976473  -5796.125753   -296.343948                    
V 21   4467.457128   8056.653838 -30223.319247     -0.021429                    
P 22   -969.375398 -17361.106356  20237.291417    167.043664                    
V 22  22242.385879 -12419.142924  -9827.226957      0.013986                    
P 23 -18456.839481   4899.265012 -18556.223151     87.764382                    
V 23 -20085.979160 -12414.418833  16250.220602     -0.036221                    
P 24  14532.367402  -6829.049416  21138.640317     -5.952454                    
V 24   1950.076317  26821.158029   7360.550007     -0.006309                    
P 25  19360.932453 -17137.147662  -5879.856324     95.447657                    
V 25   7551.183617  -1957.825877  30918.795379      0.040922                    
P 26  22814.897198  13813.822304   1288.473203      4.100238                    
V 26    928.436551   2972.856095 -31885.990499      0.152738                    
P 28  -3898.775508  17487.110732  20127.747991    256.754313                    
V 28 -21670.671942  11011.581953 -14351.822907      0.032401                    
P 29  10360.496827 -11272.521830 -21644.921626    433.654427                    
V 29  23602.101826  14316.312988   3878.263441      0.036569                    
P 31  -7492.999816 -22895.330118 -10689.346492    313.589712                    
V 31   1978.096381 -13927.894594  28272.278919      0.013844                    
P 32 -24268.273357   5635.529573   8548.750917   -554.905434                    
V 32   8123.822999  -7899.889091  29234.313865     -0.020017                    
EOF
